C/2023 X2 (Lemmon),h,12/26.9007/2025,77.0029,66.3133,64.6054,1.001590,5.093477,2000,8.5,3.2
# From MPEC 2024-A43
P/2023 X3 (PANSTARRS),e,4.4834,62.0124,40.8247,4.245554,0.1126685,0.28627083,16.4526,09/15.0/2024,2000,g 15.5,4.0
# From MPEC 2024-JU4
C/2023 X4 (Hogan),e,11.5947,28.7661,100.5516,9.912161,0.0315829,0.63095249,3.5746,09/15.0/2024,2000,g 12.0,4.0
# From MPEC 2024-DA2
C/2023 X7 (PANSTARRS),h,05/14.9341/2025,69.0565,119.2069,354.3568,1.002476,4.820754,2000,9.0,4.0
# From MPEC 2024-JU4
P/2023 Y1 (Gibbs),e,6.3841,78.8560,51.4499,3.749028,0.1357769,0.44522121,39.4020,09/15.0/2024,2000,g 17.0,4.0
# From MPEC 2024-F34
P/2023 Y2 (Gibbs),e,6.9928,79.2284,16.8474,3.745660,0.1359601,0.39226382,54.6605,09/15.0/2024,2000,g 15.5,4.0
# From MPEC 2024-RQ6
C/2024 A1 (ATLAS),h,06/13.7021/2025,94.4465,112.1413,353.3047,1.001396,3.875549,2000,7.0,4.0
# From MPEC 2024-RQ6
C/2024 A2 (ATLAS),e,119.1134,78.1665,295.5841,32.48676,0.0053229,0.94208005,0.7403,09/15.0/2024,2000,g 12.5,4.0
# From MPEC 2024-RQ6
C/2024 B1 (Lemmon),h,10/07.7018/2024,70.9049,79.1877,66.2099,1.000825,1.633640,2000,13.0,4.0
# From MPEC 2024-GJ3
C/2024 B2 (Lemmon),e,99.8416,294.3783,130.3322,4530,0.0000032,0.99909995,0.0000,10/06.0857/2023,2000,g 11.5,4.0
# From MPEC 2024-M41
C/2024 C1 (PANSTARRS),e,14.2268,83.8102,94.4659,10.56498,0.0287013,0.58230511,0.4342,09/15.0/2024,2000,g 11.5,4.0
# From MPEC 2024-JU4
C/2024 C2 (PANSTARRS),e,27.2844,66.4416,87.5378,16.19736,0.0151195,0.44488518,357.3337,09/15.0/2024,2000,g  6.0,4.0
# From MPEC 2024-GJ3
C/2024 C3 (PANSTARRS),e,22.4622,359.7091,159.6510,11.65190,0.0247804,0.42390479,7.7289,09/15.0/2024,2000,g  9.0,4.0
# From MPEC 2024-Q20
C/2024 C4 (ATLAS),e,79.2864,220.6838,321.5177,83.93543,0.0012817,0.98247298,0.0000,01/30.1947/2024,2000,g 14.5,4.0
# From MPEC 2024-EG1
A/2024 D1,e,132.4501,179.6676,125.7411,1767,0.0000133,0.99620676,0.0000,12/05.0691/2027,2000,g 11.0,2.0
# From MPEC 2024-RQ6
C/2024 E1 (Wierzchos),h,01/20.7727/2026,75.2354,108.0991,243.6528,1.000010,0.565450,2000,7.0,4.0
# From MPEC 2024-JU4
C/2024 E2 (Bok),e,155.6479,135.6508,358.0588,51.70168,0.0026512,0.85121536,0.8666,09/15.0/2024,2000,g  8.0,4.0
# From MPEC 2024-JU4
P/2024 F1 (PANSTARRS),e,7.0054,251.5418,229.5496,3.443040,0.1542734,0.45988161,50.1899,09/15.0/2024,2000,g 16.0,4.0
# From MPEC 2024-Q20
C/2024 F2 (PANSTARRS),e,13.7409,138.9470,112.9106,9.949734,0.0314041,0.60116719,1.5028,09/15.0/2024,2000,g 11.0,4.0
# From MPEC 2024-RQ6
P/2024 FG9 (Nanshan-Hahn),e,1.7312,253.0440,245.9138,3.256494,0.1677176,0.50978224,19.7319,09/15.0/2024,2000,g 14.0,4.0
# From MPEC 2024-PC5
C/2024 G1 (Wierzchos),e,95.4006,30.6000,128.2252,121.6189,0.0007349,0.96768414,359.9735,09/15.0/2024,2000,g 10.0,4.0
# From MPEC 2024-JU4
C/2024 G2 (ATLAS),e,122.1314,171.3951,328.7904,893.2606,0.0000369,0.99401555,0.0000,06/13.7772/2025,2000,g  7.0,4.0
# From MPEC 2024-RQ6
C/2024 G3 (ATLAS),h,01/13.4284/2025,116.8476,220.3372,108.1250,1.000010,0.093522,2000,9.0,4.0
# From MPEC 2024-P23
C/2024 G4 (PANSTARRS),e,33.0272,152.9970,131.4296,3057,0.0000058,0.99839747,0.0000,03/21.7600/2026,2000,g  8.0,4.0
# From MPEC 2024-JC6
C/2024 G5 (Leonard),e,50.3888,316.3985,209.5632,542.6820,0.0000780,0.99455878,0.0000,09/07.0018/2024,2000,g 13.0,4.0
# From MPEC 2024-RQ6
C/2024 G6 (ATLAS),h,02/21.0317/2026,120.4574,250.9520,23.4681,1.002338,6.428780,2000,5.5,4.0
# From MPEC 2024-Q20
C/2024 G7 (ATLAS),h,02/10.2664/2025,131.5187,191.9492,289.6621,1.001702,6.027662,2000,7.0,4.0
# From MPEC 2024-Q05
A/2024 G8,e,97.4107,11.2473,249.1583,143.7593,0.0005718,0.99184482,0.0000,06/15.6051/2024,2000,g 20.0,2.0
# From MPEC 2024-JU4
P/2024 J1 (PANSTARRS),e,13.1579,321.9508,200.3421,3.807976,0.1326364,0.30753081,40.9598,09/15.0/2024,2000,g 14.5,4.0
# From MPEC 2024-RQ6
C/2024 J2 (Wierzchos),e,79.2958,189.0603,143.1545,149.4494,0.0005395,0.98788370,0.0000,03/19.7459/2025,2000,g 11.5,4.0
# From MPEC 2024-RQ6
C/2024 J3 (ATLAS),h,11/25.3295/2026,75.6292,285.9633,74.0943,1.000833,3.864754,2000,5.0,4.0
# From MPEC 2024-Q20
C/2024 J4 (Lemmon),e,117.5353,19.2959,127.8684,4103,0.0000038,0.99861198,0.0000,04/26.1663/2025,2000,g  8.0,4.0
# From MPEC 2024-LB4
P/2024 K1 (PANSTARRS),e,1.7862,251.6907,351.9613,6.846903,0.0550127,0.49524365,7.0903,09/15.0/2024,2000,g 13.5,4.0
# From MPEC 2024-RQ6
C/2024 L1 (PANSTARRS),e,99.1721,45.1390,171.8350,11.46042,0.0254041,0.53337320,354.3970,09/15.0/2024,2000,g 10.0,4.0
# From MPEC 2024-P23
C/2024 L2 (PANSTARRS),e,139.4866,266.2867,345.6503,458.3495,0.0001004,0.98183481,0.0000,06/13.3741/2025,2000,g  7.5,3.2
# From MPEC 2024-RQ6
C/2024 L3 (PANSTARRS),h,11/24.4950/2023,111.5922,294.9847,59.0925,1.004699,6.858363,2000,9.5,4.0
# From MPEC 2024-RQ6
P/2024 L4 (Rankin),e,10.0460,139.7767,53.7097,2.228495,0.2962692,0.69837212,45.5392,09/15.0/2024,2000,g 21.5,4.0
# From MPEC 2024-RQ6
C/2024 L5 (ATLAS),h,03/10.4746/2025,166.5731,139.1677,290.5262,1.037394,3.431901,2000,9.0,4.0
# From MPEC 2024-RQ6
C/2024 M1 (ATLAS),e,73.7101,76.2152,345.6042,29.86467,0.0060390,0.94296401,359.6012,09/15.0/2024,2000,g 12.0,4.0
# From MPEC 2024-RQ6
C/2024 N1 (PANSTARRS),h,10/18.8396/2025,88.7709,323.0099,91.2469,1.001011,4.398306,2000,10.5,4.0
# From MPEC 2024-RQ6
P/2024 N2 (PANSTARRS),e,7.7898,245.0458,48.8834,3.795570,0.1332872,0.35704860,14.2551,09/15.0/2024,2000,g 16.0,4.0
# From MPEC 2024-RQ6
C/2024 N3 (Sarneczky),h,04/11.3131/2025,88.7293,82.6090,86.8678,1.000811,5.014778,2000,8.0,4.0
# From MPEC 2024-R10
C/2024 N4 (Sarneczky),h,01/09.9250/2025,49.7688,339.6759,116.6669,1.005810,5.398197,2000,7.5,4.0
# From MPEC 2024-RQ6
P/2024 N6 (NEAT-PANSTARRS),e,11.3645,324.0731,1.4564,3.732061,0.1367039,0.55042791,16.2444,09/15.0/2024,2000,g 16.5,4.0
# From MPEC 2024-PC5
C/2024 O1 (PANSTARRS),h,01/29.0278/2023,59.0722,303.3347,349.9263,1.001359,6.608213,2000,8.5,4.0
# From MPEC 2024-RQ6
P/2024 O2 (PANSTARRS),e,28.9693,6.8103,310.7161,7.390129,0.0490598,0.49975528,7.2685,09/15.0/2024,2000,g 12.0,4.0
# From MPEC 2024-RQ6
P/2024 Q1 (PANSTARRS),e,5.0155,23.1378,284.4093,3.517159,0.1494225,0.53475774,13.8169,09/15.0/2024,2000,g 17.0,4.0
# From MPEC 2024-RQ6
C/2024 Q3 (PANSTARRS),h,03/05.1843/2025,121.3815,337.2842,70.1073,1.001926,2.091980,2000,15.0,4.0
# From MPEC 2024-RQ6
P/2024 R1 (PANSTARRS),e,12.7364,84.9832,230.5785,3.450557,0.1537695,0.49291164,14.0446,09/15.0/2024,2000,g 18.0,4.0
# From MPEC 2024-RK2
P/2024 R2 (PANSTARRS),e,15.1051,193.0256,203.9617,3.132323,0.1777888,0.26524131,356.9980,09/15.0/2024,2000,g 15.5,4.0
# From  98, 1083
1P/Halley,e,162.2070,59.6962,112.6083,17.86648,0.0130511,0.96705803,183.6919,09/15.0/2024,2000,g  4.0,6.0
# From MPEC 2024-RQ6
2P/Encke,e,11.3393,334.0148,187.2835,2.218367,0.2983005,0.84698533,97.9819,09/15.0/2024,2000,g 11.5,6.0
# From  76, 1135
3D/Biela,e,7.8876,276.1866,192.2893,3.539292,0.1480231,0.76749963,317.9301,09/15.0/2024,2000,g 11.0,6.0
# From  76, 1135
3D-A/Biela,e,7.2154,276.6855,192.1198,3.550405,0.1473286,0.76713313,348.4904,09/15.0/2024,2000,g 11.0,6.0
# From  76, 1135
3D-B/Biela,e,7.8797,276.2013,192.2503,3.540041,0.1479761,0.76779765,317.6659,09/15.0/2024,2000,g 11.0,6.0
# From MPEC 2023-FK0
4P/Faye,e,8.0065,192.9210,207.1145,3.829056,0.1315426,0.57663213,144.9441,09/15.0/2024,2000,g  8.0,6.0
# From  27, 116
5D/Brorsen,e,18.6281,94.9056,20.3016,3.158289,0.1756007,0.83776454,90.7548,09/15.0/2024,2000,g 10.5,6.0
# From MPEC 2022-WD2
6P/d'Arrest,e,19.5008,138.9503,178.0759,3.497532,0.1506820,0.61195341,164.8503,09/15.0/2024,2000,g  7.5,16.0
# From MPEC 2023-A50
7P/Pons-Winnecke,e,22.4574,93.2724,172.4554,3.404136,0.1569256,0.64038647,189.4109,09/15.0/2024,2000,g 10.0,6.0
# From MPEC 2022-HC2
8P/Tuttle,e,54.9752,270.1754,207.4719,5.704332,0.0723431,0.82055245,80.5779,09/15.0/2024,2000,g  8.0,8.0
# From MPEC 2024-AF0
9P/Tempel,e,10.9374,67.4012,183.9767,3.245109,0.1686010,0.49144677,155.5628,09/15.0/2024,2000,g  5.5,10.0
# From MPEC 2024-R10
10P/Tempel,e,12.0285,117.8058,195.5154,3.063037,0.1838551,0.53748102,233.8432,09/15.0/2024,2000,g  5.0,10.0
# From MPEC 2024-R10
11P/Tempel-Swift-LINEAR,e,14.4347,238.8653,168.0354,3.283526,0.1656507,0.57755969,229.8494,09/15.0/2024,2000,g 17.0,4.0
# From MPEC 2024-RQ6
12P/Pons-Brooks,e,74.1919,255.8558,198.9886,17.18536,0.0138346,0.95456645,2.0320,09/15.0/2024,2000,g  5.0,6.0
# From MPEC 2024-RQ6
13P/Olbers,e,44.6658,85.8473,64.4162,16.85904,0.0142382,0.93027642,1.0956,09/15.0/2024,2000,g  5.0,6.0
# From MPEC 2024-LE0
14P/Wolf,e,27.9223,202.0349,159.1791,4.257012,0.1122139,0.35685998,277.6516,09/15.0/2024,2000,g  5.5,12.0
# From MPEC 2022-ED3
15P/Finlay,e,6.7914,13.7432,347.8749,3.510197,0.1498673,0.71645839,173.8004,09/15.0/2024,2000,g 12.0,4.0
# From MPEC 2022-X67
16P/Brooks,e,3.0102,138.8430,245.3498,3.661208,0.1406914,0.48599450,175.2313,09/15.0/2024,2000,g  7.5,10.0
# From MPEC 2023-J29
17P/Holmes,e,19.0124,326.6205,24.6224,3.640443,0.1418968,0.42670210,184.9858,09/15.0/2024,2000,g 10.0,6.0
# From  19, 80
18D/Perrine-Mrkos,e,17.656,158.467,238.233,3.88294,0.128814,0.5896086,2.162,09/15.0/2024,2000,g  9.0,4.0
# From MPEC 2024-JU4
19P/Borrelly,e,29.3171,74.2147,351.9892,3.607954,0.1438178,0.63789346,137.4672,09/15.0/2024,2000,g  4.5,10.0
# From MPEC 2024-LE0
21P/Giacobini-Zinner,e,32.0507,195.3352,172.9250,3.492654,0.1509978,0.71111015,331.1064,09/15.0/2024,2000,g  9.0,6.0
# From MPEC 2024-L77
22P/Kopff,e,4.7654,120.4667,162.9017,3.426804,0.1553711,0.55253873,141.5082,09/15.0/2024,2000,g  3.0,10.4
# From MPC 14747
23P/Brorsen-Metcalf,e,19.4032,311.4059,129.7605,16.93958,0.0141368,0.97256748,0.0000,05/21.2546/2059,2000,g 10.0,6.0
# From MPC110085
24P/Schaumasse,e,11.5060,78.3719,58.3966,4.056031,0.1206569,0.70805476,302.0408,09/15.0/2024,2000,g  6.5,14.0
# From NK 378
25D/Neujmin 2,e,2.8077,279.9839,244.7794,3.223444,0.1703036,0.55077286,319.4054,09/15.0/2024,2000,g 12.5,6.0
# From MPEC 2024-RQ6
26P/Grigg-Skjellerup,e,22.4332,211.5381,2.1375,3.015375,0.1882314,0.64057262,49.8186,09/15.0/2024,2000,g 12.0,16.0
# From MPC 78188
